[{"OBJECT_NAME":"STARLINK-35414","OBJECT_ID":"2025-218H","EPOCH":"2026-03-09T14:04:43.015872","MEAN_MOTION":15.05651824,"ECCENTRICITY":0.000162,"INCLINATION":97.6015,"RA_OF_ASC_NODE":292.8433,"ARG_OF_PERICENTER":88.9368,"MEAN_ANOMALY":271.2045,"EPHEMERIS_TYPE":0,"CLASSIFICATION_TYPE":"U","NORAD_CAT_ID":65798,"ELEMENT_SET_NO":999,"REV_AT_EPOCH":2495,"BSTAR":0.00026272,"MEAN_MOTION_DOT":3.732e-5,"MEAN_MOTION_DDOT":0},{"OBJECT_NAME":"PEGASUS DEB","OBJECT_ID":"1994-029BC","EPOCH":"2026-03-09T22:00:19.479168","MEAN_MOTION":15.02669201,"ECCENTRICITY":0.00619411,"INCLINATION":81.9229,"RA_OF_ASC_NODE":10.1044,"ARG_OF_PERICENTER":202.7728,"MEAN_ANOMALY":222.9696,"EPHEMERIS_TYPE":0,"CLASSIFICATION_TYPE":"U","NORAD_CAT_ID":24007,"ELEMENT_SET_NO":999,"REV_AT_EPOCH":60998,"BSTAR":0.00034526552,"MEAN_MOTION_DOT":4.826e-5,"MEAN_MOTION_DDOT":0}]
